AETHER-2                
1 58299U 23174AV  26068.71793741  .00008341  00000+0  26166-3 0  9990
2 58299  97.3931 151.9008 0008630 139.5247 220.6639 15.33264165129982
STARLINK-35025          
1 65430U 25192AC  26068.71707285  .00021902  00000+0  75005-3 0  9999
2 65430  53.1606 232.5559 0000832  84.1219 275.9876 15.30172330 29381
